{"type": "FeatureCollection", "features": [ {"type": "Feature", "properties": {"norad_id": 41601, "name": "SKYSAT-C1", "group": "resource", "lat": 15.151917304964254, "lon": 10.931938305984781, "alt_km": 467.87408754392527, "timestamp": "2025-12-01T03:58:49.207825+00:00", "meta": {"OBJECT_NAME": "SKYSAT-C1", "OBJECT_ID": "2016-040C", "EPOCH": "2025-11-30T20:04:38.182656", "MEAN_MOTION": 15.32259924, "ECCENTRICITY": 0.0003524, "INCLINATION": 96.9849, "RA_OF_ASC_NODE": 12.5238, "ARG_OF_PERICENTER": 45.0773, "MEAN_ANOMALY": 315.0755, "EPHEMERIS_TYPE": 0, "CLASSIFICATION_TYPE": "U", "NORAD_CAT_ID": 41601, "ELEMENT_SET_NO": 999, "REV_AT_EPOCH": 52745, "BSTAR": 0.00031968, "MEAN_MOTION_DOT": 9.89e-05, "MEAN_MOTION_DDOT": 0, "GROUP": "resource"}, "tle": {"line1": "1 41601U 16040C   25334.83655304  .00009890  00000+0  31968-3 0  9999", "line2": "2 41601  96.9849  12.5238 0003524  45.0773 315.0755 15.32259924527451"}}, "geometry": {"type": "Point", "coordinates": [10.931938305984781, 15.151917304964254]}}, {"type": "Feature", "properties": {"norad_id": 41603, "name": "LAPAN-A3", "group": "resource", "lat": -18.399982850499416, "lon": 150.75439433697355, "alt_km": 484.3933128700801, "timestamp": "2025-12-01T03:58:49.207835+00:00", "meta": {"OBJECT_NAME": "LAPAN-A3", "OBJECT_ID": "2016-040E", "EPOCH": "2025-11-30T20:50:37.791744", "MEAN_MOTION": 15.31407954, "ECCENTRICITY": 0.0011156, "INCLINATION": 97.1427, "RA_OF_ASC_NODE": 332.8587, "ARG_OF_PERICENTER": 16.9595, "MEAN_ANOMALY": 343.2018, "EPHEMERIS_TYPE": 0, "CLASSIFICATION_TYPE": "U", "NORAD_CAT_ID": 41603, "ELEMENT_SET_NO": 999, "REV_AT_EPOCH": 52444, "BSTAR": 0.00016037, "MEAN_MOTION_DOT": 4.798e-05, "MEAN_MOTION_DDOT": 0, "GROUP": "resource"}, "tle": {"line1": "1 41603U 16040E   25334.86849296  .00004798  00000+0  16037-3 0  9991", "line2": "2 41603  97.1427 332.8587 0011156  16.9595 343.2018 15.31407954524440"}}, "geometry": {"type": "Point", "coordinates": [150.75439433697355, -18.399982850499416]}}, {"type": "Feature", "properties": {"norad_id": 41604, "name": "BIROS", "group": "resource", "lat": -38.05832983233039, "lon": -179.40160582105833, "alt_km": 321.2783445477735, "timestamp": "2025-12-01T03:58:49.207845+00:00", "meta": {"OBJECT_NAME": "BIROS", "OBJECT_ID": "2016-040F", "EPOCH": "2025-11-30T19:29:11.196096", "MEAN_MOTION": 15.85027514, "ECCENTRICITY": 0.0002419, "INCLINATION": 97.0707, "RA_OF_ASC_NODE": 5.8096, "ARG_OF_PERICENTER": 177.0342, "MEAN_ANOMALY": 183.0944, "EPHEMERIS_TYPE": 0, "CLASSIFICATION_TYPE": "U", "NORAD_CAT_ID": 41604, "ELEMENT_SET_NO": 999, "REV_AT_EPOCH": 52683, "BSTAR": 0.00063776, "MEAN_MOTION_DOT": 0.00151108, "MEAN_MOTION_DDOT": 0, "GROUP": "resource"}, "tle": {"line1": "1 41604U 16040F   25334.81193514  .00151108  00000+0  63776-3 0  9992", "line2": "2 41604  97.0707   5.8096 0002419 177.0342 183.0944 15.85027514526836"}}, "geometry": {"type": "Point", "coordinates": [-179.40160582105833, -38.05832983233039]}}, {"type": "Feature", "properties": {"norad_id": 41727, "name": "GAOFEN-3", "group": "resource", "lat": 81.46501420606702, "lon": -99.16611418173633, "alt_km": 742.5916527015306, "timestamp": "2025-12-01T03:58:49.207856+00:00", "meta": {"OBJECT_NAME": "GAOFEN-3", "OBJECT_ID": "2016-049A", "EPOCH": "2025-11-30T20:54:40.495392", "MEAN_MOTION": 14.42229944, "ECCENTRICITY": 0.0001557, "INCLINATION": 98.4042, "RA_OF_ASC_NODE": 340.6384, "ARG_OF_PERICENTER": 77.9588, "MEAN_ANOMALY": 282.1776, "EPHEMERIS_TYPE": 0, "CLASSIFICATION_TYPE": "U", "NORAD_CAT_ID": 41727, "ELEMENT_SET_NO": 999, "REV_AT_EPOCH": 49006, "BSTAR": 4.0675e-05, "MEAN_MOTION_DOT": 9.1e-07, "MEAN_MOTION_DDOT": 0, "GROUP": "resource"}, "tle": {"line1": "1 41727U 16049A   25334.87130203  .00000091  00000+0  40675-4 0  9997", "line2": "2 41727  98.4042 340.6384 0001557  77.9588 282.1776 14.42229944490063"}}, "geometry": {"type": "Point", "coordinates": [-99.16611418173633, 81.46501420606702]}}, {"type": "Feature", "properties": {"norad_id": 41771, "name": "SKYSAT-C4", "group": "resource", "lat": -82.62118617312248, "lon": 71.06306159245173, "alt_km": 448.7416557270799, "timestamp": "2025-12-01T03:58:49.207867+00:00", "meta": {"OBJECT_NAME": "SKYSAT-C4", "OBJECT_ID": "2016-058B", "EPOCH": "2025-11-30T19:00:47.790720", "MEAN_MOTION": 15.41740024, "ECCENTRICITY": 6.12e-05, "INCLINATION": 96.9396, "RA_OF_ASC_NODE": 0.5653, "ARG_OF_PERICENTER": 98.5152, "MEAN_ANOMALY": 261.6165, "EPHEMERIS_TYPE": 0, "CLASSIFICATION_TYPE": "U", "NORAD_CAT_ID": 41771, "ELEMENT_SET_NO": 999, "REV_AT_EPOCH": 51483, "BSTAR": 0.00036619, "MEAN_MOTION_DOT": 0.00015406, "MEAN_MOTION_DDOT": 0, "GROUP": "resource"}, "tle": {"line1": "1 41771U 16058B   25334.79221980  .00015406  00000+0  36619-3 0  9998", "line2": "2 41771  96.9396   0.5653 0000612  98.5152 261.6165 15.41740024514838"}}, "geometry": {"type": "Point", "coordinates": [71.06306159245173, -82.62118617312248]}}, {"type": "Feature", "properties": {"norad_id": 41772, "name": "SKYSAT-C5", "group": "resource", "lat": 74.60406086794832, "lon": -133.79842529059164, "alt_km": 449.8784139507634, "timestamp": "2025-12-01T03:58:49.207877+00:00", "meta": {"OBJECT_NAME": "SKYSAT-C5", "OBJECT_ID": "2016-058C", "EPOCH": "2025-11-30T15:01:09.045696", "MEAN_MOTION": 15.35606205, "ECCENTRICITY": 0.0003668, "INCLINATION": 97.0785, "RA_OF_ASC_NODE": 18.858, "ARG_OF_PERICENTER": 137.7772, "MEAN_ANOMALY": 222.3755, "EPHEMERIS_TYPE": 0, "CLASSIFICATION_TYPE": "U", "NORAD_CAT_ID": 41772, "ELEMENT_SET_NO": 999, "REV_AT_EPOCH": 51330, "BSTAR": 0.00032844, "MEAN_MOTION_DOT": 0.00011299, "MEAN_MOTION_DDOT": 0, "GROUP": "resource"}, "tle": {"line1": "1 41772U 16058C   25334.62579914  .00011299  00000+0  32844-3 0  9996", "line2": "2 41772  97.0785  18.8580 0003668 137.7772 222.3755 15.35606205513307"}}, "geometry": {"type": "Point", "coordinates": [-133.79842529059164, 74.60406086794832]}}, {"type": "Feature", "properties": {"norad_id": 41773, "name": "SKYSAT-C2", "group": "resource", "lat": 41.646544108954544, "lon": -6.121170799182257, "alt_km": 448.75254558184406, "timestamp": "2025-12-01T03:58:49.207887+00:00", "meta": {"OBJECT_NAME": "SKYSAT-C2", "OBJECT_ID": "2016-058D", "EPOCH": "2025-11-30T19:59:05.971200", "MEAN_MOTION": 15.36864816, "ECCENTRICITY": 0.0005227, "INCLINATION": 97.038, "RA_OF_ASC_NODE": 359.8676, "ARG_OF_PERICENTER": 64.0996, "MEAN_ANOMALY": 296.0787, "EPHEMERIS_TYPE": 0, "CLASSIFICATION_TYPE": "U", "NORAD_CAT_ID": 41773, "ELEMENT_SET_NO": 999, "REV_AT_EPOCH": 51453, "BSTAR": 0.00034941, "MEAN_MOTION_DOT": 0.00012526, "MEAN_MOTION_DDOT": 0, "GROUP": "resource"}, "tle": {"line1": "1 41773U 16058D   25334.83270800  .00012526  00000+0  34941-3 0  9996", "line2": "2 41773  97.0380 359.8676 0005227  64.0996 296.0787 15.36864816514530"}}, "geometry": {"type": "Point", "coordinates": [-6.121170799182257, 41.646544108954544]}}, {"type": "Feature", "properties": {"norad_id": 41774, "name": "SKYSAT-C3", "group": "resource", "lat": -60.50990596237186, "lon": 21.879654342794133, "alt_km": 443.06062788158033, "timestamp": "2025-12-01T03:58:49.207897+00:00", "meta": {"OBJECT_NAME": "SKYSAT-C3", "OBJECT_ID": "2016-058E", "EPOCH": "2025-11-30T15:48:00.527616", "MEAN_MOTION": 15.43767712, "ECCENTRICITY": 0.000144, "INCLINATION": 96.9324, "RA_OF_ASC_NODE": 8.972, "ARG_OF_PERICENTER": 98.401, "MEAN_ANOMALY": 261.7403, "EPHEMERIS_TYPE": 0, "CLASSIFICATION_TYPE": "U", "NORAD_CAT_ID": 41774, "ELEMENT_SET_NO": 999, "REV_AT_EPOCH": 51539, "BSTAR": 0.00042045, "MEAN_MOTION_DOT": 0.00018954, "MEAN_MOTION_DDOT": 0, "GROUP": "resource"}, "tle": {"line1": "1 41774U 16058E   25334.65833944  .00018954  00000+0  42045-3 0  9996", "line2": "2 41774  96.9324   8.9720 0001440  98.4010 261.7403 15.43767712515394"}}, "geometry": {"type": "Point", "coordinates": [21.879654342794133, -60.50990596237186]}}, {"type": "Feature", "properties": {"norad_id": 41785, "name": "ALSAT 1B", "group": "resource", "lat": -81.62261507732988, "lon": 55.67976107872212, "alt_km": 667.0892683718648, "timestamp": "2025-12-01T03:58:49.207907+00:00", "meta": {"OBJECT_NAME": "ALSAT 1B", "OBJECT_ID": "2016-059C", "EPOCH": "2025-11-30T20:13:06.821184", "MEAN_MOTION": 14.7205502, "ECCENTRICITY": 0.0010233, "INCLINATION": 97.7821, "RA_OF_ASC_NODE": 347.1455, "ARG_OF_PERICENTER": 137.6678, "MEAN_ANOMALY": 222.5322, "EPHEMERIS_TYPE": 0, "CLASSIFICATION_TYPE": "U", "NORAD_CAT_ID": 41785, "ELEMENT_SET_NO": 999, "REV_AT_EPOCH": 49139, "BSTAR": 8.4493e-05, "MEAN_MOTION_DOT": 4.84e-06, "MEAN_MOTION_DDOT": 0, "GROUP": "resource"}, "tle": {"line1": "1 41785U 16059C   25334.84244006  .00000484  00000+0  84493-4 0  9998", "line2": "2 41785  97.7821 347.1455 0010233 137.6678 222.5322 14.72055020491397"}}, "geometry": {"type": "Point", "coordinates": [55.67976107872212, -81.62261507732988]}}, {"type": "Feature", "properties": {"norad_id": 41787, "name": "PATHFINDER 1", "group": "resource", "lat": -10.022130764591681, "lon": 157.0861068363246, "alt_km": 667.9695246168694, "timestamp": "2025-12-01T03:58:49.207917+00:00", "meta": {"OBJECT_NAME": "PATHFINDER 1", "OBJECT_ID": "2016-059E", "EPOCH": "2025-11-30T18:56:12.089184", "MEAN_MOTION": 14.67287281, "ECCENTRICITY": 0.0029884, "INCLINATION": 97.8141, "RA_OF_ASC_NODE": 338.1174, "ARG_OF_PERICENTER": 117.5353, "MEAN_ANOMALY": 242.8895, "EPHEMERIS_TYPE": 0, "CLASSIFICATION_TYPE": "U", "NORAD_CAT_ID": 41787, "ELEMENT_SET_NO": 999, "REV_AT_EPOCH": 49061, "BSTAR": 0.00015477, "MEAN_MOTION_DOT": 8.32e-06, "MEAN_MOTION_DDOT": 0, "GROUP": "resource"}, "tle": {"line1": "1 41787U 16059E   25334.78902881  .00000832  00000+0  15477-3 0  9997", "line2": "2 41787  97.8141 338.1174 0029884 117.5353 242.8895 14.67287281490616"}}, "geometry": {"type": "Point", "coordinates": [157.0861068363246, -10.022130764591681]}}]}